STARLINK-1349
1 15587C 20025BJ  21326.15554528 -.00017000  00000-0 -11390-2 0  3267
2 15587  53.0522 278.0522 0001864  60.3383  15.9726 15.06415637    15
